start=new Date('2022-10-08T00:00:00.000Z').valueOf();
sats=[{"TLE_LINE2":"2 53184  53.2160 359.3980 0004633 326.5397 118.9271 15.73242667  1304","OBJECT_TYPE":"PAYLOAD","MEAN_ANOMALY":"118.9271","TLE_LINE1":"1 53184U 22083BE  22280.91667824 -.00080229  00000-0 -57118-3 0  9991","REF_FRAME":"TEME","MEAN_MOTION":"15.73242667","RCS_SIZE":"LARGE","LAUNCH_DATE":"2022-07-17","ARG_OF_PERICENTER":"326.5397","COUNTRY_CODE":"US","OBJECT_NAME":"STARLINK-4257","MEAN_ELEMENT_THEORY":"SGP4","ECCENTRICITY":"0.00046330","TIME_SYSTEM":"UTC","REV_AT_EPOCH":"130","RA_OF_ASC_NODE":"359.3980","FILE":"3595773","PERIOD":"91.531","SEMIMAJOR_AXIS":"6727.774","EPHEMERIS_TYPE":"0","OBJECT_ID":"2022-083BE","CENTER_NAME":"EARTH","PERIAPSIS":"346.522","NORAD_CAT_ID":"53184","INCLINATION":"53.2160","MEAN_MOTION_DOT":"-0.00080229","SITE":"AFETR","BSTAR":"-0.00057118000000","ELEMENT_SET_NO":"999","APOAPSIS":"352.756","MEAN_MOTION_DDOT":"0.0000000000000","EPOCH":"2022-10-07T22:00:00.999936","GP_ID":"214438413","DECAY_DATE":null,"CLASSIFICATION_TYPE":"U"},{"CENTER_NAME":"EARTH","PERIOD":"95.919","OBJECT_ID":"2022-084A","EPHEMERIS_TYPE":"0","SEMIMAJOR_AXIS":"6941.135","APOAPSIS":"564.060","MEAN_MOTION_DDOT":"0.0000000000000","DECAY_DATE":null,"CLASSIFICATION_TYPE":"U","GP_ID":"214438741","EPOCH":"2022-10-07T18:46:26.857056","MEAN_MOTION_DOT":"0.00001842","PERIAPSIS":"561.940","NORAD_CAT_ID":"53189","INCLINATION":"97.6572","SITE":"AFWTR","ELEMENT_SET_NO":"999","BSTAR":"0.00014798000000","MEAN_ANOMALY":"286.2924","TLE_LINE1":"1 53189U 22084A   22280.78225529  .00001842  00000-0  14798-3 0  9993","TLE_LINE2":"2 53189  97.6572 340.4670 0001527  73.8468 286.2924 15.01263787 12612","OBJECT_TYPE":"PAYLOAD","OBJECT_NAME":"STARLINK-4391","MEAN_ELEMENT_THEORY":"SGP4","ARG_OF_PERICENTER":"73.8468","COUNTRY_CODE":"US","REV_AT_EPOCH":"1261","RA_OF_ASC_NODE":"340.4670","FILE":"3595773","ECCENTRICITY":"0.00015270","TIME_SYSTEM":"UTC","RCS_SIZE":"LARGE","REF_FRAME":"TEME","MEAN_MOTION":"15.01263787","LAUNCH_DATE":"2022-07-22"},{"ECCENTRICITY":"0.00020850","TIME_SYSTEM":"UTC","REV_AT_EPOCH":"1262","RA_OF_ASC_NODE":"340.5477","FILE":"3595773","COUNTRY_CODE":"US","ARG_OF_PERICENTER":"130.0006","OBJECT_NAME":"STARLINK-4332","MEAN_ELEMENT_THEORY":"SGP4","LAUNCH_DATE":"2022-07-22","REF_FRAME":"TEME","MEAN_MOTION":"15.01253318","RCS_SIZE":"LARGE","MEAN_ANOMALY":"230.1402","TLE_LINE1":"1 53190U 22084B   22280.87877270 -.00001942  00000-0 -14670-3 0  9993","OBJECT_TYPE":"PAYLOAD","TLE_LINE2":"2 53190  97.6533 340.5477 0002085 130.0006 230.1402 15.01253318 12620","GP_ID":"214437831","EPOCH":"2022-10-07T21:05:25.961280","CLASSIFICATION_TYPE":"U","DECAY_DATE":null,"MEAN_MOTION_DDOT":"0.0000000000000","APOAPSIS":"564.480","SITE":"AFWTR","BSTAR":"-0.00014670000000","ELEMENT_SET_NO":"999","PERIAPSIS":"561.585","NORAD_CAT_ID":"53190","INCLINATION":"97.6533","MEAN_MOTION_DOT":"-0.00001942","CENTER_NAME":"EARTH","SEMIMAJOR_AXIS":"6941.167","EPHEMERIS_TYPE":"0","OBJECT_ID":"2022-084B","PERIOD":"95.920"},{"OBJECT_TYPE":"PAYLOAD","TLE_LINE2":"2 53191  97.6564 339.8623 0001875  84.1052 276.0386 15.01272219 11849","TLE_LINE1":"1 53191U 22084C   22280.17681617  .00003757  00000-0  29688-3 0  9994","MEAN_ANOMALY":"276.0386","LAUNCH_DATE":"2022-07-22","MEAN_MOTION":"15.01272219","REF_FRAME":"TEME","RCS_SIZE":"LARGE","TIME_SYSTEM":"UTC","ECCENTRICITY":"0.00018750","FILE":"3595509","REV_AT_EPOCH":"1184","RA_OF_ASC_NODE":"339.8623","COUNTRY_CODE":"US","ARG_OF_PERICENTER":"84.1052","MEAN_ELEMENT_THEORY":"SGP4","OBJECT_NAME":"STARLINK-4369","SEMIMAJOR_AXIS":"6941.109","EPHEMERIS_TYPE":"0","OBJECT_ID":"2022-084C","PERIOD":"95.919","CENTER_NAME":"EARTH","ELEMENT_SET_NO":"999","BSTAR":"0.00029688000000","SITE":"AFWTR","INCLINATION":"97.6564","NORAD_CAT_ID":"53191","PERIAPSIS":"561.673","MEAN_MOTION_DOT":"0.00003757","GP_ID":"214407421","EPOCH":"2022-10-07T04:14:36.917088","DECAY_DATE":null,"CLASSIFICATION_TYPE":"U","MEAN_MOTION_DDOT":"0.0000000000000","APOAPSIS":"564.276"},{"TLE_LINE1":"1 53192U 22084D   22280.17497380  .00000736  00000-0  61899-4 0  9992","MEAN_ANOMALY":"252.1510","TLE_LINE2":"2 53192  97.6547 339.8612 0002845 108.0024 252.1510 15.01254603 12518","OBJECT_TYPE":"PAYLOAD","COUNTRY_CODE":"US","ARG_OF_PERICENTER":"108.0024","MEAN_ELEMENT_THEORY":"SGP4","OBJECT_NAME":"STARLINK-4375","TIME_SYSTEM":"UTC","ECCENTRICITY":"0.00028450","FILE":"3595509","REV_AT_EPOCH":"1251","RA_OF_ASC_NODE":"339.8612","MEAN_MOTION":"15.01254603","REF_FRAME":"TEME","RCS_SIZE":"LARGE","LAUNCH_DATE":"2022-07-22","CENTER_NAME":"EARTH","PERIOD":"95.920","SEMIMAJOR_AXIS":"6941.163","EPHEMERIS_TYPE":"0","OBJECT_ID":"2022-084D","MEAN_MOTION_DDOT":"0.0000000000000","APOAPSIS":"565.003","GP_ID":"214406523","EPOCH":"2022-10-07T04:11:57.736320","DECAY_DATE":null,"CLASSIFICATION_TYPE":"U","INCLINATION":"97.6547","PERIAPSIS":"561.054","NORAD_CAT_ID":"53192","MEAN_MOTION_DOT":"0.00000736","ELEMENT_SET_NO":"999","BSTAR":"0.00006189900000","SITE":"AFWTR"},{"REF_FRAME":"TEME","MEAN_MOTION":"15.01253607","RCS_SIZE":"LARGE","LAUNCH_DATE":"2022-07-22","ARG_OF_PERICENTER":"71.6157","COUNTRY_CODE":"US","OBJECT_NAME":"STARLINK-4351","MEAN_ELEMENT_THEORY":"SGP4","ECCENTRICITY":"0.00019950","TIME_SYSTEM":"UTC","REV_AT_EPOCH":"1232","RA_OF_ASC_NODE":"340.4685","FILE":"3595643","TLE_LINE2":"2 53193  97.6567 340.4685 0001995  71.6157 288.5284 15.01253607 12329","OBJECT_TYPE":"PAYLOAD","MEAN_ANOMALY":"288.5284","TLE_LINE1":"1 53193U 22084E   22280.78040374  .00001791  00000-0  14402-3 0  9996","PERIAPSIS":"561.647","NORAD_CAT_ID":"53193","INCLINATION":"97.6567","MEAN_MOTION_DOT":"0.00001791","SITE":"AFWTR","ELEMENT_SET_NO":"999","BSTAR":"0.00014402000000","APOAPSIS":"564.416","MEAN_MOTION_DDOT":"0.0000000000000","GP_ID":"214410972","EPOCH":"2022-10-07T18:43:46.883136","DECAY_DATE":null,"CLASSIFICATION_TYPE":"U","PERIOD":"95.920","SEMIMAJOR_AXIS":"6941.167","OBJECT_ID":"2022-084E","EPHEMERIS_TYPE":"0","CENTER_NAME":"EARTH"},{"ECCENTRICITY":"0.00017220","TIME_SYSTEM":"UTC","RA_OF_ASC_NODE":"340.4567","REV_AT_EPOCH":"1231","FILE":"3595643","ARG_OF_PERICENTER":"73.4601","COUNTRY_CODE":"US","OBJECT_NAME":"STARLINK-4382","MEAN_ELEMENT_THEORY":"SGP4","LAUNCH_DATE":"2022-07-22","REF_FRAME":"TEME","MEAN_MOTION":"15.01257851","RCS_SIZE":"LARGE","MEAN_ANOMALY":"286.6812","TLE_LINE1":"1 53194U 22084F   22280.77854299  .00002163  00000-0  17296-3 0  9993","OBJECT_TYPE":"PAYLOAD","TLE_LINE2":"2 53194  97.6569 340.4567 0001722  73.4601 286.6812 15.01257851 12313","GP_ID":"214410475","EPOCH":"2022-10-07T18:41:06.114336","CLASSIFICATION_TYPE":"U","DECAY_DATE":null,"MEAN_MOTION_DDOT":"0.0000000000000","APOAPSIS":"564.214","SITE":"AFWTR","BSTAR":"0.00017296000000","ELEMENT_SET_NO":"999","PERIAPSIS":"561.823","NORAD_CAT_ID":"53194","INCLINATION":"97.6569","MEAN_MOTION_DOT":"0.00002163","CENTER_NAME":"EARTH","SEMIMAJOR_AXIS":"6941.153","EPHEMERIS_TYPE":"0","OBJECT_ID":"2022-084F","PERIOD":"95.920"},{"TLE_LINE2":"2 53195  97.6564 340.5923 0001835 101.5963 258.5467 15.00450745 12326","OBJECT_TYPE":"PAYLOAD","TLE_LINE1":"1 53195U 22084G   22280.77948773  .00002589  00000-0  21044-3 0  9993","MEAN_ANOMALY":"258.5467","MEAN_MOTION":"15.00450745","REF_FRAME":"TEME","RCS_SIZE":"LARGE","LAUNCH_DATE":"2022-07-22","COUNTRY_CODE":"US","ARG_OF_PERICENTER":"101.5963","MEAN_ELEMENT_THEORY":"SGP4","OBJECT_NAME":"STARLINK-4404","TIME_SYSTEM":"UTC","ECCENTRICITY":"0.00018350","FILE":"3595643","REV_AT_EPOCH":"1232","RA_OF_ASC_NODE":"340.5923","PERIOD":"95.971","SEMIMAJOR_AXIS":"6943.642","OBJECT_ID":"2022-084G","EPHEMERIS_TYPE":"0","CENTER_NAME":"EARTH","INCLINATION":"97.6564","PERIAPSIS":"564.233","NORAD_CAT_ID":"53195","MEAN_MOTION_DOT":"0.00002589","ELEMENT_SET_NO":"999","BSTAR":"0.00021044000000","SITE":"AFWTR","APOAPSIS":"566.782","MEAN_MOTION_DDOT":"0.0000000000000","EPOCH":"2022-10-07T18:42:27.739872","GP_ID":"214410974","CLASSIFICATION_TYPE":"U","DECAY_DATE":null},{"RCS_SIZE":"LARGE","REF_FRAME":"TEME","MEAN_MOTION":"15.01268985","LAUNCH_DATE":"2022-07-22","OBJECT_NAME":"STARLINK-4407","MEAN_ELEMENT_THEORY":"SGP4","COUNTRY_CODE":"US","ARG_OF_PERICENTER":"82.7943","REV_AT_EPOCH":"1254","RA_OF_ASC_NODE":"340.1246","FILE":"3595509","ECCENTRICITY":"0.00017630","TIME_SYSTEM":"UTC","TLE_LINE2":"2 53196  97.6556 340.1246 0001763  82.7943 277.3481 15.01268985 12543","OBJECT_TYPE":"PAYLOAD","MEAN_ANOMALY":"277.3481","TLE_LINE1":"1 53196U 22084H   22280.44182067  .00003432  00000-0  27160-3 0  9997","MEAN_MOTION_DOT":"0.00003432","NORAD_CAT_ID":"53196","PERIAPSIS":"561.760","INCLINATION":"97.6556","SITE":"AFWTR","BSTAR":"0.00027160000000","ELEMENT_SET_NO":"999","MEAN_MOTION_DDOT":"0.0000000000000","APOAPSIS":"564.208","CLASSIFICATION_TYPE":"U","DECAY_DATE":null,"EPOCH":"2022-10-07T10:36:13.305888","GP_ID":"214406940","PERIOD":"95.919","EPHEMERIS_TYPE":"0","OBJECT_ID":"2022-084H","SEMIMAJOR_AXIS":"6941.119","CENTER_NAME":"EARTH"},{"OBJECT_TYPE":"PAYLOAD","TLE_LINE2":"2 53197  97.6549 340.4427 0001533 102.2664 257.8732 15.01266287 11930","TLE_LINE1":"1 53197U 22084J   22280.76928445  .00000825  00000-0  68771-4 0  9998","MEAN_ANOMALY":"257.8732","LAUNCH_DATE":"2022-07-22","RCS_SIZE":"LARGE","MEAN_MOTION":"15.01266287","REF_FRAME":"TEME","FILE":"3595773","REV_AT_EPOCH":"1193","RA_OF_ASC_NODE":"340.4427","TIME_SYSTEM":"UTC","ECCENTRICITY":"0.00015330","MEAN_ELEMENT_THEORY":"SGP4","OBJECT_NAME":"STARLINK-4403","ARG_OF_PERICENTER":"102.2664","COUNTRY_CODE":"US","EPHEMERIS_TYPE":"0","OBJECT_ID":"2022-084J","SEMIMAJOR_AXIS":"6941.127","PERIOD":"95.919","CENTER_NAME":"EARTH","ELEMENT_SET_NO":"999","BSTAR":"0.00006877100000","SITE":"AFWTR","MEAN_MOTION_DOT":"0.00000825","INCLINATION":"97.6549","NORAD_CAT_ID":"53197","PERIAPSIS":"561.928","CLASSIFICATION_TYPE":"U","DECAY_DATE":null,"EPOCH":"2022-10-07T18:27:46.176480","GP_ID":"214438742","APOAPSIS":"564.057","MEAN_MOTION_DDOT":"0.0000000000000"}];
